KUIPER-00176            
1 65788U 25217AC  25345.91668981 -.00956260  00000+0 -80259-1 0  9992
2 65788  51.8890  72.4373 0005243 337.5659 282.4408 15.00597924  4649
KUIPER-00101            
1 65947U 25228A   25345.91668981 -.00762412  00000+0 -71367-1 0  9995
2 65947  51.9060  29.3618 0004060  28.2253  37.9147 14.96256595  4631
KUIPER-00113            
1 65948U 25228B   25345.42532265  .00031645  00000+0  17954-2 0  9995
2 65948  51.8853  29.0738 0005811   1.9248 358.1749 15.12673024 10180
KUIPER-00117            
1 65949U 25228C   25345.91668981 -.00888915  00000+0 -69677-1 0  9995
2 65949  51.8916  27.7873 0009628  21.3038 349.7576 15.03372953  5331
KUIPER-00121            
1 65950U 25228D   25345.91668981 -.00330439  00000+0 -15199-1 0  9990
2 65950  51.8838  25.5149 0006548  25.5733 110.0095 15.21333104  5435
KUIPER-00122            
1 65951U 25228E   25345.91668981 -.00134687  00000+0 -14885-1 0  9999
2 65951  51.9281  31.3718 0006821  43.1302 115.2506 14.87725032  5775
KUIPER-00123            
1 65952U 25228F   25345.91668981  .00003170  00000+0  38397-3 0  9996
2 65952  51.8984  31.3759 0009130  16.7437 346.1748 14.86159890  3572
KUIPER-00124            
1 65953U 25228G   25345.91668981  .00031077  00000+0  16854-2 0  9997
2 65953  51.8895  25.8902 0005794  27.6048 291.2961 15.14295712  5365
